TLE2=2 20580  28.4725 316.3669 0001497 262.8571  97.1855 15.29665795775190
TLE2=2 20261  82.6015  96.3111 1186722 263.9527  82.5401 12.59574590668363
TLE2=2 19257  74.0451  89.2191 0021529 266.8415 103.8841 14.38924207978412
TLE2=2 20666  62.7830 211.7315 0026817 349.9240  10.1318 15.03652084940059
TLE2=2 19650  70.9985 125.0362 0014843 342.0732  17.9866 14.16155342928672
TLE2=2 20663  62.7895 293.7878 0015162 193.5115 166.5582 15.05713842938166
TLE2=2 20466  82.4988 255.6037 0018351 257.6996 102.2165 14.83579800930340
TLE2=2 20775  82.9018 240.1081 0359663 332.0516  26.1781 14.89442149811156
TLE2=2 19573  82.5161 105.2881 0013124 123.2058 237.0442 15.28227119 21291
TLE2=2 20262  82.5967 165.1079 1230843 155.9864 210.4049 12.50506537661725
TLE2=2 20443  98.3057 141.4705 0010633 161.1222 199.0363 14.39878118894605
TLE2=2 20625  70.9953 271.4694 0016236 283.0843  76.8467 14.15012397850171
TLE2=2 20465  82.4681  35.0728 0007707 298.2825  61.7626 15.11426258944134
TLE2=2 20453  35.6029  95.5963 0080677  10.6768 349.5661 15.57484619928018
TLE2=2 20323  97.0695 286.5684 0070707  83.5213 277.4030 14.50673176897535
TLE2=2 19574  82.5330  30.2380 0020701   1.1151 112.9364 14.85671007  2887
TLE2=2 20511  82.5226 211.5293 0017362  54.4835 305.7996 14.82157121924418
