[{"OBJECT_NAME":"SL-8 R/B","OBJECT_ID":"1988-053B","EPOCH":"2026-03-22T07:12:21.396960","MEAN_MOTION":14.38924207,"ECCENTRICITY":0.00215299,"INCLINATION":74.0451,"RA_OF_ASC_NODE":89.2191,"ARG_OF_PERICENTER":266.8415,"MEAN_ANOMALY":103.8841,"EPHEMERIS_TYPE":0,"CLASSIFICATION_TYPE":"U","NORAD_CAT_ID":19257,"ELEMENT_SET_NO":999,"REV_AT_EPOCH":97841,"BSTAR":0.00011212966,"MEAN_MOTION_DOT":3.2e-6,"MEAN_MOTION_DDOT":0},{"OBJECT_NAME":"COSMOS 1975","OBJECT_ID":"1988-093A","EPOCH":"2026-03-22T00:50:38.043456","MEAN_MOTION":15.28227119,"ECCENTRICITY":0.00131248,"INCLINATION":82.5161,"RA_OF_ASC_NODE":105.2881,"ARG_OF_PERICENTER":123.2058,"MEAN_ANOMALY":237.0442,"EPHEMERIS_TYPE":0,"CLASSIFICATION_TYPE":"U","NORAD_CAT_ID":19573,"ELEMENT_SET_NO":999,"REV_AT_EPOCH":2129,"BSTAR":0.00028462521,"MEAN_MOTION_DOT":7.879e-5,"MEAN_MOTION_DDOT":0},{"OBJECT_NAME":"SL-14 R/B","OBJECT_ID":"1988-093B","EPOCH":"2026-03-22T06:24:20.879712","MEAN_MOTION":14.85671007,"ECCENTRICITY":0.00207016,"INCLINATION":82.533,"RA_OF_ASC_NODE":30.238,"ARG_OF_PERICENTER":1.1151,"MEAN_ANOMALY":112.9364,"EPHEMERIS_TYPE":0,"CLASSIFICATION_TYPE":"U","NORAD_CAT_ID":19574,"ELEMENT_SET_NO":999,"REV_AT_EPOCH":288,"BSTAR":6.1688556e-5,"MEAN_MOTION_DOT":5.61e-6,"MEAN_MOTION_DDOT":0},{"OBJECT_NAME":"SL-16 R/B","OBJECT_ID":"1988-102B","EPOCH":"2026-03-22T06:23:03.437664","MEAN_MOTION":14.16155342,"ECCENTRICITY":0.00148435,"INCLINATION":70.9985,"RA_OF_ASC_NODE":125.0362,"ARG_OF_PERICENTER":342.0732,"MEAN_ANOMALY":17.9866,"EPHEMERIS_TYPE":0,"CLASSIFICATION_TYPE":"U","NORAD_CAT_ID":19650,"ELEMENT_SET_NO":999,"REV_AT_EPOCH":92867,"BSTAR":-8.6868468e-5,"MEAN_MOTION_DOT":-2.2e-6,"MEAN_MOTION_DDOT":0},{"OBJECT_NAME":"INTERCOSMOS 24","OBJECT_ID":"1989-080A","EPOCH":"2026-03-22T02:44:37.695552","MEAN_MOTION":12.5957459,"ECCENTRICITY":0.11867225,"INCLINATION":82.6015,"RA_OF_ASC_NODE":96.3111,"ARG_OF_PERICENTER":263.9527,"MEAN_ANOMALY":82.5401,"EPHEMERIS_TYPE":0,"CLASSIFICATION_TYPE":"U","NORAD_CAT_ID":20261,"ELEMENT_SET_NO":999,"REV_AT_EPOCH":66836,"BSTAR":0.00015890794,"MEAN_MOTION_DOT":5.35e-6,"MEAN_MOTION_DDOT":0},{"OBJECT_NAME":"SL-14 R/B","OBJECT_ID":"1989-080C","EPOCH":"2026-03-22T06:41:36.051936","MEAN_MOTION":12.50506537,"ECCENTRICITY":0.12308435,"INCLINATION":82.5967,"RA_OF_ASC_NODE":165.1079,"ARG_OF_PERICENTER":155.9864,"MEAN_ANOMALY":210.4049,"EPHEMERIS_TYPE":0,"CLASSIFICATION_TYPE":"U","NORAD_CAT_ID":20262,"ELEMENT_SET_NO":999,"REV_AT_EPOCH":66172,"BSTAR":0.00012243638,"MEAN_MOTION_DOT":4.31e-6,"MEAN_MOTION_DDOT":0},{"OBJECT_NAME":"DELTA 1 R/B","OBJECT_ID":"1989-089B","EPOCH":"2026-03-22T02:31:48.484128","MEAN_MOTION":14.50673176,"ECCENTRICITY":0.00707071,"INCLINATION":97.0695,"RA_OF_ASC_NODE":286.5684,"ARG_OF_PERICENTER":83.5213,"MEAN_ANOMALY":277.403,"EPHEMERIS_TYPE":0,"CLASSIFICATION_TYPE":"U","NORAD_CAT_ID":20323,"ELEMENT_SET_NO":999,"REV_AT_EPOCH":89753,"BSTAR":9.1119546e-5,"MEAN_MOTION_DOT":3.35e-6,"MEAN_MOTION_DDOT":0},{"OBJECT_NAME":"ARIANE 40 R/B","OBJECT_ID":"1990-005H","EPOCH":"2026-03-22T04:23:23.848224","MEAN_MOTION":14.39878118,"ECCENTRICITY":0.00106338,"INCLINATION":98.3057,"RA_OF_ASC_NODE":141.4705,"ARG_OF_PERICENTER":161.1222,"MEAN_ANOMALY":199.0363,"EPHEMERIS_TYPE":0,"CLASSIFICATION_TYPE":"U","NORAD_CAT_ID":20443,"ELEMENT_SET_NO":999,"REV_AT_EPOCH":89460,"BSTAR":8.9840293e-5,"MEAN_MOTION_DOT":2.4e-6,"MEAN_MOTION_DDOT":0},{"OBJECT_NAME":"DELTA 2 R/B(1)","OBJECT_ID":"1990-008B","EPOCH":"2026-03-21T18:02:45.077568","MEAN_MOTION":15.57484619,"ECCENTRICITY":0.00806772,"INCLINATION":35.6029,"RA_OF_ASC_NODE":95.5963,"ARG_OF_PERICENTER":10.6768,"MEAN_ANOMALY":349.5661,"EPHEMERIS_TYPE":0,"CLASSIFICATION_TYPE":"U","NORAD_CAT_ID":20453,"ELEMENT_SET_NO":999,"REV_AT_EPOCH":92801,"BSTAR":0.00080083801,"MEAN_MOTION_DOT":0.00071464,"MEAN_MOTION_DDOT":0},{"OBJECT_NAME":"COSMOS 2058","OBJECT_ID":"1990-010A","EPOCH":"2026-03-22T05:27:27.705600","MEAN_MOTION":15.11426258,"ECCENTRICITY":0.00077073,"INCLINATION":82.4681,"RA_OF_ASC_NODE":35.0728,"ARG_OF_PERICENTER":298.2825,"MEAN_ANOMALY":61.7626,"EPHEMERIS_TYPE":0,"CLASSIFICATION_TYPE":"U","NORAD_CAT_ID":20465,"ELEMENT_SET_NO":999,"REV_AT_EPOCH":94413,"BSTAR":0.00030263752,"MEAN_MOTION_DOT":5.143e-5,"MEAN_MOTION_DDOT":0},{"OBJECT_NAME":"SL-14 R/B","OBJECT_ID":"1990-010B","EPOCH":"2026-03-22T05:33:58.091904","MEAN_MOTION":14.835798,"ECCENTRICITY":0.00183519,"INCLINATION":82.4988,"RA_OF_ASC_NODE":255.6037,"ARG_OF_PERICENTER":257.6996,"MEAN_ANOMALY":102.2165,"EPHEMERIS_TYPE":0,"CLASSIFICATION_TYPE":"U","NORAD_CAT_ID":20466,"ELEMENT_SET_NO":999,"REV_AT_EPOCH":93034,"BSTAR":5.4479914e-5,"MEAN_MOTION_DOT":4.73e-6,"MEAN_MOTION_DDOT":0},{"OBJECT_NAME":"SL-14 R/B","OBJECT_ID":"1990-018B","EPOCH":"2026-03-22T01:25:20.684352","MEAN_MOTION":14.82157121,"ECCENTRICITY":0.00173623,"INCLINATION":82.5226,"RA_OF_ASC_NODE":211.5293,"ARG_OF_PERICENTER":54.4835,"MEAN_ANOMALY":305.7996,"EPHEMERIS_TYPE":0,"CLASSIFICATION_TYPE":"U","NORAD_CAT_ID":20511,"ELEMENT_SET_NO":999,"REV_AT_EPOCH":92441,"BSTAR":5.5804596e-5,"MEAN_MOTION_DOT":4.69e-6,"MEAN_MOTION_DDOT":0},{"OBJECT_NAME":"HST","OBJECT_ID":"1990-037B","EPOCH":"2026-03-21T22:45:04.537152","MEAN_MOTION":15.29665795,"ECCENTRICITY":0.00014973,"INCLINATION":28.4725,"RA_OF_ASC_NODE":316.3669,"ARG_OF_PERICENTER":262.8571,"MEAN_ANOMALY":97.1855,"EPHEMERIS_TYPE":0,"CLASSIFICATION_TYPE":"U","NORAD_CAT_ID":20580,"ELEMENT_SET_NO":999,"REV_AT_EPOCH":77519,"BSTAR":0.00029688591,"MEAN_MOTION_DOT":9.017e-5,"MEAN_MOTION_DDOT":0},{"OBJECT_NAME":"SL-16 R/B","OBJECT_ID":"1990-046B","EPOCH":"2026-03-22T06:43:41.897856","MEAN_MOTION":14.15012397,"ECCENTRICITY":0.00162363,"INCLINATION":70.9953,"RA_OF_ASC_NODE":271.4694,"ARG_OF_PERICENTER":283.0843,"MEAN_ANOMALY":76.8467,"EPHEMERIS_TYPE":0,"CLASSIFICATION_TYPE":"U","NORAD_CAT_ID":20625,"ELEMENT_SET_NO":999,"REV_AT_EPOCH":85017,"BSTAR":8.4924007e-5,"MEAN_MOTION_DOT":1.17e-6,"MEAN_MOTION_DDOT":0},{"OBJECT_NAME":"COSMOS 2084","OBJECT_ID":"1990-055A","EPOCH":"2026-03-21T22:36:23.730912","MEAN_MOTION":15.05713842,"ECCENTRICITY":0.00151623,"INCLINATION":62.7895,"RA_OF_ASC_NODE":293.7878,"ARG_OF_PERICENTER":193.5115,"MEAN_ANOMALY":166.5582,"EPHEMERIS_TYPE":0,"CLASSIFICATION_TYPE":"U","NORAD_CAT_ID":20663,"ELEMENT_SET_NO":999,"REV_AT_EPOCH":93816,"BSTAR":0.000196106,"MEAN_MOTION_DOT":2.654e-5,"MEAN_MOTION_DDOT":0},{"OBJECT_NAME":"SL-6 R/B(2)","OBJECT_ID":"1990-055D","EPOCH":"2026-03-22T01:47:06.100224","MEAN_MOTION":15.03652084,"ECCENTRICITY":0.00268172,"INCLINATION":62.783,"RA_OF_ASC_NODE":211.7315,"ARG_OF_PERICENTER":349.924,"MEAN_ANOMALY":10.1318,"EPHEMERIS_TYPE":0,"CLASSIFICATION_TYPE":"U","NORAD_CAT_ID":20666,"ELEMENT_SET_NO":999,"REV_AT_EPOCH":94005,"BSTAR":0.00018781711,"MEAN_MOTION_DOT":2.401e-5,"MEAN_MOTION_DDOT":0},{"OBJECT_NAME":"SL-8 R/B","OBJECT_ID":"1990-078B","EPOCH":"2026-03-22T03:20:54.987648","MEAN_MOTION":14.89442149,"ECCENTRICITY":0.03596633,"INCLINATION":82.9018,"RA_OF_ASC_NODE":240.1081,"ARG_OF_PERICENTER":332.0516,"MEAN_ANOMALY":26.1781,"EPHEMERIS_TYPE":0,"CLASSIFICATION_TYPE":"U","NORAD_CAT_ID":20775,"ELEMENT_SET_NO":999,"REV_AT_EPOCH":81115,"BSTAR":0.00050533579,"MEAN_MOTION_DOT":0.00017078,"MEAN_MOTION_DDOT":0}]
